UNKNOWN                 
1 81036U          23031.50314904 -.00002145  00000+0 -44956-2 0  9996
2 81036  65.9774 168.1508 2683634  64.7754 320.6476  9.16986181305973
UNKNOWN                 
1 81052U          23029.92733927  .00002004  00000+0  68691-3 0  9992
2 81052  65.7833 113.7179 0624100  93.6001 273.6604 13.63660153456468
UNKNOWN                 
1 81069U          23031.01428817  .00002789  00000+0  44321-2 0  9995
2 81069 100.3256 233.1856 0063989  77.9165 282.9128 13.49567847374180
UNKNOWN                 
1 81073U          23008.64623694  .00051916  00000+0  50551-1 0  9990
2 81073  61.6486 121.8921 4694043 248.8261  55.9371  5.93082052537859
UNKNOWN                 
1 81078U          23024.24919421  .00000478  00000+0  15475-1 0  9998
2 81078  65.1097 125.5454 0196182 237.6815 146.6357 11.21959013376414
UNKNOWN                 
1 81111U          23031.46389339  .00028103  00000+0  33226-2 0  9997
2 81111  62.8289 225.4921 4267747 317.0559  16.5589  6.89739369196023
UNKNOWN                 
1 81123U 70025    23029.99166314  .00001043  00000+0  10847-2 0  9993
2 81123 100.0492  40.9935 0003078 244.7035 115.3795 13.78188930461781
UNKNOWN                 
1 81134U          23031.10979752  .00000109  00000+0  37764-3 0  9995
2 81134  90.2691 339.8207 0022284 247.3099 112.5663 12.92464438327380
UNKNOWN                 
1 81161U          23023.72894306  .00003271  00000+0  36237-2 0  9991
2 81161 100.3854 122.9124 0058520  67.4380 293.2942 13.71819943411417
UNKNOWN                 
1 81219U 81053    23031.44051516  .00000381  00000+0  35161-3 0  9993
2 81219  82.9248  70.8090 0019823 283.7910  76.1043 13.80061614463119
UNKNOWN                 
1 81221U          23024.62763120  .00004569  00000+0  20548-2 0  9996
2 81221  98.8861 329.5161 0110250 152.4267 208.2816 14.19618732374541
UNKNOWN                 
1 81228U          23028.76643226  .00004857  00000+0  21168-2 0  9995
2 81228  70.5328  72.2527 0082920 110.7728 250.2305 14.22620618476040
UNKNOWN                 
1 81247U 81053    23028.23439380  .00023498  00000+0  50412-2 0  9995
2 81247  83.2427  18.1831 0023385 242.4159 117.4670 14.58350470483828
UNKNOWN                 
1 81254U 70025    23027.60105802  .00003030  00000+0  22828-2 0  9999
2 81254 100.3708 303.1344 0076022 317.3345  42.1923 13.93837382466219
UNKNOWN                 
1 81264U          23029.84730791  .00005746  00000+0  10232-2 0  9997
2 81264  99.4399  76.1788 0100572 289.9288  69.1098 14.64293785455639
UNKNOWN                 
1 81279U          23031.59791771  .00002272  00000+0  94750-3 0  9992
2 81279  98.1314 164.8730 0221329 195.5497 163.8806 14.14746321314400
UNKNOWN                 
1 81301U          23029.95226300  .00000158  00000+0  23258-3 0  9992
2 81301  66.7588 276.1912 0093555 218.5645 155.4688 13.75672199462189
UNKNOWN                 
1 81311U 90105    23031.23261404  .00000816  00000+0  18380-3 0  9997
2 81311  98.8014  23.5707 0138665  70.3584 302.6066 14.53607916487404
UNKNOWN                 
1 81317U 80089    23031.21036253  .00000227  00000+0  48962-3 0  9998
2 81317  67.1390 319.4588 0211415  43.7160 106.8694 13.37289351448665
UNKNOWN                 
1 81323U          23027.30682874  .00004523  00000+0  94276-3 0  9993
2 81323  65.7785 352.4374 0475085 143.6530 219.7831 14.08282661963609
UNKNOWN                 
1 81329U          23030.26069209  .00000777  00000+0  32403-3 0  9990
2 81329  65.8285 350.2245 0863912 142.5511 339.4378 13.14116368478031
UNKNOWN                 
1 81341U          23030.14080105  .00001354  00000+0  34596-2 0  9995
2 81341  99.5013 100.4322 0437079 356.7145   3.1112 12.90428068388017
UNKNOWN                 
1 81342U          23031.23476672  .00003162  00000+0  17702-2 0  9994
2 81342  70.9016 357.5847 0151012 138.8535 222.4087 14.05825452470029
UNKNOWN                 
1 81343U          23031.43968852  .00003062  00000+0  33649-3 0  9991
2 81343  85.8737  30.4162 0012685  48.0039 312.2263 14.87242246298032
UNKNOWN                 
1 81357U          23031.61088508  .00018552  00000+0  14831-2 0  9998
2 81357  97.4542 264.3065 0169897 308.6665  49.9455 14.89550814379647
UNKNOWN                 
1 81359U          23031.38917532  .00001073  00000+0  11178-2 0  9993
2 81359  66.8005  29.9440 0124553 315.7060  43.4094 13.75867176461380
UNKNOWN                 
1 81366U          23023.44166510  .00002391  00000+0  83611-3 0  9997
2 81366  65.8855  36.7271 0747892 227.8806 125.6322 13.39893413924683
UNKNOWN                 
1 81371U          23030.97788877  .00002752  00000+0  56328-3 0  9991
2 81371  98.9034  37.1669 0085183 352.3912   7.5987 14.59451857488631
UNKNOWN                 
1 81374U          23031.16657598  .00008576  00000+0  26268-2 0  9990
2 81374  65.7314 305.5081 0046322 337.3380  22.5669 14.41521666432978
UNKNOWN                 
1 81380U          23029.84013991  .00011993  00000+0  33227-2 0  9992
2 81380  99.8548 348.9816 0001170 207.1411 152.9715 14.46773809467027
UNKNOWN                 
1 81386U          23026.80618828  .00006015  00000+0  26901-2 0  9991
2 81386  71.0556  81.5171 0122987 284.7540  73.9983 14.19024992474335
UNKNOWN                 
1 81390U          23031.26051069  .00000333  00000+0  28968-2 0  9992
2 81390 103.1209 198.3171 0180806 175.0836 185.2047 12.34919672370867
UNKNOWN                 
1 81391U          23025.98101685  .00008637  00000+0  36487-2 0  9995
2 81391  81.2038 284.8096 0012473 292.2094  67.7762 14.25458794430986
UNKNOWN                 
1 81392U          23031.61294906  .00002590  00000+0  29731-2 0  9998
2 81392 100.4167 272.5913 0041078 160.6514 228.7409 13.70300750458337
UNKNOWN                 
1 81402U          23031.54094754  .00009334  00000+0  33563-2 0  9992
2 81402  98.6999  65.1999 0005341 268.0534  92.0038 14.33978046296102
UNKNOWN                 
1 81405U          23018.80808304  .00002143  00000+0  17679-2 0  9994
2 81405  99.5503  38.9368 0168579 158.9464 201.8738 13.83854176415073
UNKNOWN                 
1 81406U          23031.46530208  .00002277  00000+0  10219-2 0  9998
2 81406  65.8170 336.4816 0879104  61.7681 306.9255 13.05789363396741
UNKNOWN                 
1 81409U 87068    23031.33543175  .00014018  00000+0  45608-2 0  9999
2 81409  82.6612   1.5226 0059585  19.5761 340.7697 14.37670203478835
UNKNOWN                 
1 81418U          23029.86338813  .00001424  00000+0  28385-2 0  9996
2 81418 100.2911 178.5227 0060894 271.5070  87.9079 13.36087896259084
UNKNOWN                 
1 81425U          23030.20299680  .00001650  00000+0  19452-2 0  9998
2 81425  99.4595 117.4739 0080995 283.8105  75.4037 13.68087070298457
UNKNOWN                 
1 81427U          23031.17313435  .00000494  00000+0  32788-3 0  9995
2 81427  98.8477 292.6955 0088445  93.3266 267.8024 14.03926476405250
UNKNOWN                 
1 81438U          23028.21286472  .00002467  00000+0  40922-2 0  9998
2 81438 100.3060 212.5241 0049901 117.8223 242.7977 13.47298346450239
UNKNOWN                 
1 81439U          23031.31225902  .00000271  00000+0  90913-3 0  9992
2 81439  67.1631   3.3257 0599332 128.0470 237.6208 12.61591156129843
UNKNOWN                 
1 81449U 85042    23031.22331891  .00005778  00000+0  18396-2 0  9998
2 81449  66.8077 335.6199 0049000 233.9000 125.7562 14.39780747480749
UNKNOWN                 
1 81478U          23028.60523812  .00002616  00000+0  11646-2 0  9994
2 81478  99.0270 270.4082 0169074 127.2384 265.2595 14.16394255473855
UNKNOWN                 
1 81488U 75052    23030.51466116  .00000207  00000+0  36262-3 0  9996
2 81488 100.1216 230.2982 0045022  73.0647 316.9854 13.55669302454692
UNKNOWN                 
1 81497U          23030.21168308  .00003609  00000+0  41463-2 0  9993
2 81497 100.3140 185.1680 0032892 162.8107  13.1980 13.70026738 72118
UNKNOWN                 
1 81499U          23030.32030492  .00002369  00000+0  79664-3 0  9996
2 81499  74.0557   1.4218 0004952 283.4028  76.6574 14.37673975331424
UNKNOWN                 
1 81509U          23012.02501827  .01161582  00000+0  43967-1 0  9999
2 81509  98.6867 221.5884 0014379 329.1472  30.8915 15.24126058310296
UNKNOWN                 
1 81521U          23031.54070784  .00049833  00000+0  67175-2 0  9995
2 81521  99.6861 274.7926 0018071  10.7847 107.9689 14.78814747488224
UNKNOWN                 
1 81535U          23029.16434889  .00001149  00000+0  52459-3 0  9993
2 81535  98.1248 192.5290 0249166 292.2701  65.2221 14.08205256239549
UNKNOWN                 
1 81536U 73086    23031.00198616  .00000426  00000+0  29357-2 0  9996
2 81536 102.0451 226.3332 0017501 127.3111  28.6883 12.54322454420495
UNKNOWN                 
1 81537U 93016    23031.55618581  .00000271  00000+0  18837-3 0  9990
2 81537  71.0403 111.3630 0081113 286.9924  72.2316 14.05860891473366
UNKNOWN                 
1 81546U          23030.96305537  .00041845  00000+0  29121-2 0  9998
2 81546  66.8008 279.4696 0013034 105.0361 255.2219 15.05184580974063
UNKNOWN                 
1 81552U          23031.10388610  .00000546  00000+0  12799-2 0  9991
2 81552  99.0622  95.2114 0265756   5.8669 354.5460 13.16004106441477
UNKNOWN                 
1 81569U          23030.10282026  .00000368  00000+0  17439-2 0  9990
2 81569  28.0764 314.6278 0312885 348.4848  10.8643 12.46224040422033
UNKNOWN                 
1 81579U          23030.76413895  .00010823  00000+0  58233-2 0  9997
2 81579 100.0244  54.2592 0208372 124.3587 237.7480 14.02551189464586
UNKNOWN                 
1 81599U          23031.39323946 -.00000006  00000+0  10022-3 0  9994
2 81599  67.2989  20.5443 0247157 114.9731  35.5234 13.29489527445886
UNKNOWN                 
1 81605U          23031.11630732  .00001446  00000+0  67009-2 0  9990
2 81605  56.4330 289.5279 0131279 157.4482 203.2284 12.78444140 52215
UNKNOWN                 
1 81614U 76077    23031.48326372  .00003739  00000+0  26249-1 0  9996
2 81614 101.8881  61.4426 0421652 262.8241  92.4707 12.23515115409331
